STARLINK-37238          
1 69247U 26117K   26169.68113789  .00118232  00000+0  56157-3 0  9995
2 69247  53.1566 235.9170 0001715 157.5395 202.5704 15.82100392  3219
STARLINK-37412          
1 69248U 26117L   26169.74094822  .00336159  00000+0  15357-2 0  9995
2 69248  53.1562 235.5777 0000464  41.0270 319.0789 15.82308010  3229
STARLINK-37398          
1 69249U 26117M   26169.68313926  .00218401  00000+0  10720-2 0  9996
2 69249  53.1570 235.9299 0001352 159.6878 200.4199 15.81081460  3212
STARLINK-37499          
1 69250U 26117N   26169.67604895  .00215272  00000+0  10100-2 0  9990
2 69250  53.1562 235.8812 0001514 143.3754 216.7373 15.82065478  3214
STARLINK-37489          
1 69251U 26117P   26168.66349250  .00206986  00000+0  97205-3 0  9994
2 69251  53.1571 240.9461 0000794 102.7922 257.3191 15.82067811  3051
STARLINK-37434          
1 69252U 26117Q   26169.48179806  .00332686  00000+0  15431-2 0  9991
2 69252  53.1566 236.8020 0001189  78.2122 281.9034 15.81991877  3189
STARLINK-37368          
1 69253U 26117R   26169.66457836  .00321778  00000+0  14891-2 0  9993
2 69253  53.1568 235.8046 0001214  60.3984 299.7160 15.82070057  3216
STARLINK-37517          
1 69254U 26117S   26169.53690708  .00298563  00000+0  13868-2 0  9995
2 69254  53.1564 236.4298 0000573 265.6130  94.4827 15.82052229  3197
STARLINK-37378          
1 69255U 26117T   26169.72610322  .00314176  00000+0  14554-2 0  9993
2 69255  53.1567 235.4758 0001297  27.2737 332.8354 15.82069099  3221
STARLINK-37396          
1 69256U 26117U   26169.53412058  .00296336  00000+0  13689-2 0  9994
2 69256  53.1561 236.4093 0003181 269.7331  90.3327 15.82175115  3195
STARLINK-37508          
1 69257U 26117V   26169.66367073  .00197395  00000+0  97804-3 0  9992
2 69257  53.1569 235.7957 0000963  66.4376 293.6747 15.80937367  3211
STARLINK-37276          
1 69258U 26117W   26169.33335647 -.00055338  00000+0 -27824-3 0  9996
2 69258  53.1573 237.1329 0001254 110.4662 322.1664 15.80901734  4359
STARLINK-37518          
1 69259U 26117X   26169.76439308  .00262411  00000+0  12899-2 0  9998
2 69259  53.1563 234.9874 0002608  47.2814 312.8428 15.80924584  3237
STARLINK-37478          
1 69260U 26117Y   26169.51173714  .00271160  00000+0  13233-2 0  9993
2 69260  53.1571 236.2570 0001815 341.6553  18.4404 15.81059198  3195
STARLINK-37506          
1 69261U 26117Z   26169.83335647 -.00013627  00000+0 -65562-4 0  9992
2 69261  53.1567 234.6391 0001081  65.9512 328.3949 15.80887482  4440
STARLINK-37503          
1 69262U 26117AA  26169.57421171  .00251751  00000+0  12388-2 0  9998
2 69262  53.1570 235.9337 0001786  31.7792 328.3338 15.80932098  3201
STARLINK-37502          
1 69263U 26117AB  26169.51047537  .00216159  00000+0  10701-2 0  9993
2 69263  53.1572 236.2469 0001049  30.5534 329.5550 15.80902489  3195
STARLINK-37486          
1 69264U 26117AC  26169.50925625  .00219764  00000+0  10813-2 0  9995
2 69264  53.1569 236.2391 0001312 350.0645  10.0352 15.81024711  3198
STARLINK-37435          
1 69265U 26117AD  26169.51074363  .00248678  00000+0  12247-2 0  9990
2 69265  53.1570 236.2476 0001260  18.7065 341.4004 15.80923316  3194
STARLINK-37464          
1 69266U 26117AE  26169.75805956  .00230476  00000+0  10804-2 0  9991
2 69266  53.1566 234.9427 0002071  47.2003 312.9194 15.82040820  3231
KUIPER-00282            
1 69267U 26118A   26169.78554653  .00014914  00000+0  45304-3 0  9992
2 69267  51.8600  45.8733 0012072 187.6225 172.4578 15.34216667  4228
KUIPER-00383            
1 69268U 26118B   26169.78241502  .00054285  00000+0  16079-2 0  9990
2 69268  51.8604  45.8531 0011266 190.9798 169.0943 15.34280312  4221
KUIPER-00527            
1 69269U 26118C   26169.77726278  .00014643  00000+0  43759-3 0  9998
2 69269  51.8627  45.8241 0010101 179.7629 180.3363 15.34772692  4229
KUIPER-00562            
1 69270U 26118D   26169.74009440  .00025024  00000+0  65269-3 0  9997
2 69270  51.8721  45.5865 0001625 124.2931 235.8210 15.38676568  4223
KUIPER-00570            
1 69271U 26118E   26169.84484788  .00012783  00000+0  38498-3 0  9993
2 69271  51.8585  45.5208 0011508 190.5817 169.4928 15.34638005  4232
KUIPER-00572            
1 69272U 26118F   26169.82601897  .00016973  00000+0  47030-3 0  9991
2 69272  51.8675  45.4126 0007182 176.8072 183.2961 15.37045704  4236
KUIPER-00581            
1 69273U 26118G   26169.83034683  .00014358  00000+0  40420-3 0  9997
2 69273  51.8660  45.4381 0008831 180.6905 179.4071 15.36678419  4327
KUIPER-00584            
1 69274U 26118H   26169.84744133  .00069853  00000+0  20562-2 0  9991
2 69274  51.8619  45.5404 0009200 191.1480 168.9303 15.34382702  4231
KUIPER-00587            
1 69275U 26118J   26169.82965054  .00016184  00000+0  45355-3 0  9994
2 69275  51.8630  45.4311 0008142 183.5498 176.5431 15.36722575  4234
KUIPER-00590            
1 69276U 26118K   26169.74954875  .00016310  00000+0  43955-3 0  9990
2 69276  51.8685  45.6534 0004252 165.2934 194.8178 15.37953814  4227
