OBJECT_NAME,OBJECT_ID,EPOCH,MEAN_MOTION,ECCENTRICITY,INCLINATION,RA_OF_ASC_NODE,ARG_OF_PERICENTER,MEAN_ANOMALY,EPHEMERIS_TYPE,CLASSIFICATION_TYPE,NORAD_CAT_ID,ELEMENT_SET_NO,REV_AT_EPOCH,BSTAR,MEAN_MOTION_DOT,MEAN_MOTION_DDOT
STARLINK-37238,2026-117K,2026-06-18T16:20:50.313696,15.82100392,.0001715,53.1566,235.9170,157.5395,202.5704,0,U,69247,999,321,.56157E-3,.118232E-2,0
STARLINK-37412,2026-117L,2026-06-18T17:46:57.926208,15.82308010,.0000464,53.1562,235.5777,41.0270,319.0789,0,U,69248,999,322,.15357E-2,.336159E-2,0
STARLINK-37398,2026-117M,2026-06-18T16:23:43.232064,15.81081460,.0001352,53.1570,235.9299,159.6878,200.4199,0,U,69249,999,321,.1072E-2,.218401E-2,0
STARLINK-37499,2026-117N,2026-06-18T16:13:30.629280,15.82065478,.0001514,53.1562,235.8812,143.3754,216.7373,0,U,69250,999,321,.101E-2,.215272E-2,0
STARLINK-37489,2026-117P,2026-06-17T15:55:25.752000,15.82067811,.00007946,53.1571,240.9461,102.7922,257.3191,0,U,69251,999,305,.97205254E-3,.206986E-2,0
STARLINK-37434,2026-117Q,2026-06-18T11:33:47.352384,15.81991877,.0001189,53.1566,236.8020,78.2122,281.9034,0,U,69252,999,318,.15431E-2,.332686E-2,0
STARLINK-37368,2026-117R,2026-06-18T15:56:59.570304,15.82070057,.0001214,53.1568,235.8046,60.3984,299.7160,0,U,69253,999,321,.14891E-2,.321778E-2,0
STARLINK-37517,2026-117S,2026-06-18T12:53:08.771712,15.82052229,.0000573,53.1564,236.4298,265.6130,94.4827,0,U,69254,999,319,.13868E-2,.298563E-2,0
STARLINK-37378,2026-117T,2026-06-18T17:25:35.318208,15.82069099,.0001297,53.1567,235.4758,27.2737,332.8354,0,U,69255,999,322,.14554E-2,.314176E-2,0
STARLINK-37396,2026-117U,2026-06-18T12:49:08.018112,15.82175115,.0003181,53.1561,236.4093,269.7331,90.3327,0,U,69256,999,319,.13689E-2,.296336E-2,0
STARLINK-37508,2026-117V,2026-06-18T15:55:41.151072,15.80937367,.0000963,53.1569,235.7957,66.4376,293.6747,0,U,69257,999,321,.97804E-3,.197395E-2,0
STARLINK-37276,2026-117W,2026-06-18T08:00:01.999008,15.80901734,.0001254,53.1573,237.1329,110.4662,322.1664,0,U,69258,999,435,-.27824E-3,-.55338E-3,0
STARLINK-37518,2026-117X,2026-06-18T18:20:43.562112,15.80924584,.0002608,53.1563,234.9874,47.2814,312.8428,0,U,69259,999,323,.12899E-2,.262411E-2,0
STARLINK-37478,2026-117Y,2026-06-18T12:16:54.088896,15.81059198,.0001815,53.1571,236.2570,341.6553,18.4404,0,U,69260,999,319,.13233E-2,.27116E-2,0
STARLINK-37506,2026-117Z,2026-06-18T20:00:01.999008,15.80887482,.0001081,53.1567,234.6391,65.9512,328.3949,0,U,69261,999,444,-.65562E-4,-.13627E-3,0
STARLINK-37503,2026-117AA,2026-06-18T13:46:51.891744,15.80932098,.0001786,53.1570,235.9337,31.7792,328.3338,0,U,69262,999,320,.12388E-2,.251751E-2,0
STARLINK-37502,2026-117AB,2026-06-18T12:15:05.071968,15.80902489,.0001049,53.1572,236.2469,30.5534,329.5550,0,U,69263,999,319,.10701E-2,.216159E-2,0
STARLINK-37486,2026-117AC,2026-06-18T12:13:19.740000,15.81024711,.0001312,53.1569,236.2391,350.0645,10.0352,0,U,69264,999,319,.10813E-2,.219764E-2,0
STARLINK-37435,2026-117AD,2026-06-18T12:15:28.249632,15.80923316,.000126,53.1570,236.2476,18.7065,341.4004,0,U,69265,999,319,.12247E-2,.248678E-2,0
STARLINK-37464,2026-117AE,2026-06-18T18:11:36.345984,15.82040820,.0002071,53.1566,234.9427,47.2003,312.9194,0,U,69266,999,323,.10804E-2,.230476E-2,0
KUIPER-00282,2026-118A,2026-06-18T18:51:11.220192,15.34216667,.0012072,51.8600,45.8733,187.6225,172.4578,0,U,69267,999,422,.45304E-3,.14914E-3,0
KUIPER-00383,2026-118B,2026-06-18T18:46:40.657728,15.34280312,.0011266,51.8604,45.8531,190.9798,169.0943,0,U,69268,999,422,.16079E-2,.54285E-3,0
KUIPER-00527,2026-118C,2026-06-18T18:39:15.504192,15.34772692,.0010101,51.8627,45.8241,179.7629,180.3363,0,U,69269,999,422,.43759E-3,.14643E-3,0
KUIPER-00562,2026-118D,2026-06-18T17:45:44.156160,15.38676568,.0001625,51.8721,45.5865,124.2931,235.8210,0,U,69270,999,422,.65269E-3,.25024E-3,0
KUIPER-00570,2026-118E,2026-06-18T20:16:34.856832,15.34638005,.0011508,51.8585,45.5208,190.5817,169.4928,0,U,69271,999,423,.38498E-3,.12783E-3,0
KUIPER-00572,2026-118F,2026-06-18T19:49:28.039008,15.37045704,.0007182,51.8675,45.4126,176.8072,183.2961,0,U,69272,999,423,.4703E-3,.16973E-3,0
KUIPER-00581,2026-118G,2026-06-18T19:55:41.966112,15.36678419,.0008831,51.8660,45.4381,180.6905,179.4071,0,U,69273,999,432,.4042E-3,.14358E-3,0
KUIPER-00584,2026-118H,2026-06-18T20:20:18.930912,15.34382702,.00092,51.8619,45.5404,191.1480,168.9303,0,U,69274,999,423,.20562E-2,.69853E-3,0
KUIPER-00587,2026-118J,2026-06-18T19:54:41.806656,15.36722575,.0008142,51.8630,45.4311,183.5498,176.5431,0,U,69275,999,423,.45355E-3,.16184E-3,0
KUIPER-00590,2026-118K,2026-06-18T17:59:21.012000,15.37953814,.0004252,51.8685,45.6534,165.2934,194.8178,0,U,69276,999,422,.43955E-3,.1631E-3,0
